{
    "links": {
        "self": "http://www.neowsapp.com/rest/v1/neo/3843404?api_key=iIulBulltgU6a56xZRHN4H3l9WmuAYTsLGpBGhQ2"
    },
    "id": "3843404",
    "neo_reference_id": "3843404",
    "name": "(2019 OD3)",
    "designation": "2019 OD3",
    "nasa_jpl_url": "http://ssd.jpl.nasa.gov/sbdb.cgi?sstr=3843404",
    "absolute_magnitude_h": 26.9,
    "estimated_diameter": {
        "kilometers": {
            "estimated_diameter_min": 0.0110803882,
            "estimated_diameter_max": 0.0247765013
        },
        "meters": {
            "estimated_diameter_min": 11.0803882126,
            "estimated_diameter_max": 24.7765012606
        },
        "miles": {
            "estimated_diameter_min": 0.0068850319,
            "estimated_diameter_max": 0.0153953994
        },
        "feet": {
            "estimated_diameter_min": 36.3529808636,
            "estimated_diameter_max": 81.2877363957
        }
    },
    "is_potentially_hazardous_asteroid": false,
    "close_approach_data": [
        {
            "close_approach_date": "1965-01-14",
            "close_approach_date_full": "1965-Jan-14 23:17",
            "epoch_date_close_approach": -156559380000,
            "relative_velocity": {
                "kilometers_per_second": "14.9596815139",
                "kilometers_per_hour": "53854.8534498834",
                "miles_per_hour": "33463.3115783456"
            },
            "miss_distance": {
                "astronomical": "0.0867037791",
                "lunar": "33.7277700699",
                "kilometers": "12970700.674310517",
                "miles": "8059619.6694864546"
            },
            "orbiting_body": "Mars"
        },
        {
            "close_approach_date": "2019-07-28",
            "close_approach_date_full": "2019-Jul-28 02:56",
            "epoch_date_close_approach": 1564282560000,
            "relative_velocity": {
                "kilometers_per_second": "18.1037022787",
                "kilometers_per_hour": "65173.3282033405",
                "miles_per_hour": "40496.1716272368"
            },
            "miss_distance": {
                "astronomical": "0.0012553062",
                "lunar": "0.4883141118",
                "kilometers": "187791.133717794",
                "miles": "116687.9995977972"
            },
            "orbiting_body": "Earth"
        },
        {
            "close_approach_date": "2019-07-28",
            "close_approach_date_full": "2019-Jul-28 06:58",
            "epoch_date_close_approach": 1564297080000,
            "relative_velocity": {
                "kilometers_per_second": "17.3586859677",
                "kilometers_per_hour": "62491.2694837754",
                "miles_per_hour": "38829.6446411826"
            },
            "miss_distance": {
                "astronomical": "0.0010312421",
                "lunar": "0.4011531769",
                "kilometers": "154271.621614327",
                "miles": "95859.9405866326"
            },
            "orbiting_body": "Moon"
        }
    ],
    "orbital_data": {
        "orbit_id": "1",
        "orbit_determination_date": "2019-07-30 09:12:13",
        "first_observation_date": "2019-07-27",
        "last_observation_date": "2019-07-28",
        "data_arc_in_days": 1,
        "observations_used": 303,
        "orbit_uncertainty": "8",
        "minimum_orbit_intersection": ".000538172",
        "jupiter_tisserand_invariant": "3.662",
        "epoch_osculation": "2458691.5",
        "eccentricity": ".6448189300777681",
        "semi_major_axis": "1.899732134295587",
        "inclination": "1.945866332442082",
        "ascending_node_longitude": "303.634461677685",
        "orbital_period": "956.3943026294855",
        "perihelion_distance": ".6747488920247515",
        "perihelion_argument": "82.68071636271895",
        "aphelion_distance": "3.124715376566422",
        "perihelion_time": "2458741.058883410800",
        "mean_anomaly": "341.3453530841455",
        "mean_motion": ".3764137856219191",
        "equinox": "J2000",
        "orbit_class": {
            "orbit_class_type": "APO",
            "orbit_class_description": "Near-Earth asteroid orbits which cross the Earth’s orbit similar to that of 1862 Apollo",
            "orbit_class_range": "a (semi-major axis) > 1.0 AU; q (perihelion) < 1.017 AU"
        }
    },
    "is_sentry_object": false
}